[{"OBJECT_NAME":"STARLINK-5026","OBJECT_ID":"2023-094AU","EPOCH":"2026-03-09T07:13:20.190432","MEAN_MOTION":15.02539997,"ECCENTRICITY":9.758e-5,"INCLINATION":43.0071,"RA_OF_ASC_NODE":19.2457,"ARG_OF_PERICENTER":282.5382,"MEAN_ANOMALY":77.5351,"EPHEMERIS_TYPE":0,"CLASSIFICATION_TYPE":"U","NORAD_CAT_ID":57260,"ELEMENT_SET_NO":999,"REV_AT_EPOCH":14785,"BSTAR":8.3707239e-5,"MEAN_MOTION_DOT":9.27e-6,"MEAN_MOTION_DDOT":0},{"OBJECT_NAME":"QAEM 100 R\/B","OBJECT_ID":"2024-165A","EPOCH":"2026-03-09T23:28:11.930304","MEAN_MOTION":15.14187295,"ECCENTRICITY":0.0059581,"INCLINATION":64.0756,"RA_OF_ASC_NODE":359.5576,"ARG_OF_PERICENTER":312.0209,"MEAN_ANOMALY":47.5844,"EPHEMERIS_TYPE":0,"CLASSIFICATION_TYPE":"U","NORAD_CAT_ID":61071,"ELEMENT_SET_NO":999,"REV_AT_EPOCH":8183,"BSTAR":0.0003372463,"MEAN_MOTION_DOT":6.252e-5,"MEAN_MOTION_DDOT":0}]
